{
  "type": "FeatureCollection",
  "features": [
    {
      "type": "Feature",
      "properties": {
        "norad_id": 33913,
        "name": "COSMOS 2251 DEB",
        "group": "cosmos-2251-debris",
        "lat": 29.074670415722533,
        "lon": -171.02973390186432,
        "alt_km": 739.5376063586846,
        "timestamp": "2025-12-14T18:52:55.896308+00:00",
        "meta_object_name": "COSMOS 2251 DEB",
        "meta_object_id": "1993-036DS",
        "meta_epoch": "2025-12-13T23:23:44.932704",
        "meta_mean_motion": 14.48492744,
        "meta_eccentricity": 0.00481684,
        "meta_inclination": 74.0331,
        "meta_ra_of_asc_node": 181.331,
        "meta_arg_of_pericenter": 283.6831,
        "meta_mean_anomaly": 194.0848,
        "meta_ephemeris_type": 0,
        "meta_classification_type": "U",
        "meta_norad_cat_id": 33913,
        "meta_element_set_no": 999,
        "meta_rev_at_epoch": 88475,
        "meta_bstar": 0.00068681874,
        "meta_mean_motion_dot": 2.587e-05,
        "meta_mean_motion_ddot": 0,
        "tle_line1": "1 33913U 93036DS  25347.97482561  .00002587  00000+0  68682-3 0  9997",
        "tle_line2": "2 33913  74.0331 181.3310 0048168 283.6831 194.0848 14.48492744884757"
      },
      "geometry": {
        "type": "Point",
        "coordinates": [
          -171.02973390186432,
          29.074670415722533
        ]
      }
    },
    {
      "type": "Feature",
      "properties": {
        "norad_id": 33914,
        "name": "COSMOS 2251 DEB",
        "group": "cosmos-2251-debris",
        "lat": 23.661107788925722,
        "lon": -175.4562116472887,
        "alt_km": 821.0562063712705,
        "timestamp": "2025-12-14T18:52:55.896319+00:00",
        "meta_object_name": "COSMOS 2251 DEB",
        "meta_object_id": "1993-036DT",
        "meta_epoch": "2025-12-13T12:56:53.327904",
        "meta_mean_motion": 13.71985759,
        "meta_eccentricity": 0.03011178,
        "meta_inclination": 74.0914,
        "meta_ra_of_asc_node": 13.7769,
        "meta_arg_of_pericenter": 116.621,
        "meta_mean_anomaly": 358.3694,
        "meta_ephemeris_type": 0,
        "meta_classification_type": "U",
        "meta_norad_cat_id": 33914,
        "meta_element_set_no": 999,
        "meta_rev_at_epoch": 84092,
        "meta_bstar": 0.00046234527,
        "meta_mean_motion_dot": 5.6e-06,
        "meta_mean_motion_ddot": 0,
        "tle_line1": "1 33914U 93036DT  25347.53950611  .00000560  00000+0  46235-3 0  9995",
        "tle_line2": "2 33914  74.0914  13.7769 0301117 116.6210 358.3694 13.71985759840926"
      },
      "geometry": {
        "type": "Point",
        "coordinates": [
          -175.4562116472887,
          23.661107788925722
        ]
      }
    },
    {
      "type": "Feature",
      "properties": {
        "norad_id": 33915,
        "name": "COSMOS 2251 DEB",
        "group": "cosmos-2251-debris",
        "lat": 17.116131121180047,
        "lon": 35.411423002706144,
        "alt_km": 792.8307316160754,
        "timestamp": "2025-12-14T18:52:55.896329+00:00",
        "meta_object_name": "COSMOS 2251 DEB",
        "meta_object_id": "1993-036DU",
        "meta_epoch": "2025-12-13T13:22:33.030336",
        "meta_mean_motion": 14.35085575,
        "meta_eccentricity": 0.01043659,
        "meta_inclination": 74.0435,
        "meta_ra_of_asc_node": 32.6089,
        "meta_arg_of_pericenter": 124.9505,
        "meta_mean_anomaly": 25.066,
        "meta_ephemeris_type": 0,
        "meta_classification_type": "U",
        "meta_norad_cat_id": 33915,
        "meta_element_set_no": 999,
        "meta_rev_at_epoch": 87769,
        "meta_bstar": 0.00052465262,
        "meta_mean_motion_dot": 1.566e-05,
        "meta_mean_motion_ddot": 0,
        "tle_line1": "1 33915U 93036DU  25347.55732674  .00001566  00000+0  52465-3 0  9994",
        "tle_line2": "2 33915  74.0435  32.6089 0104365 124.9505  25.0660 14.35085575877698"
      },
      "geometry": {
        "type": "Point",
        "coordinates": [
          35.411423002706144,
          17.116131121180047
        ]
      }
    },
    {
      "type": "Feature",
      "properties": {
        "norad_id": 33916,
        "name": "COSMOS 2251 DEB",
        "group": "cosmos-2251-debris",
        "lat": 32.18136175986249,
        "lon": 47.591352498684174,
        "alt_km": 1241.526073955023,
        "timestamp": "2025-12-14T18:52:55.896339+00:00",
        "meta_object_name": "COSMOS 2251 DEB",
        "meta_object_id": "1993-036DV",
        "meta_epoch": "2025-12-13T20:30:05.154912",
        "meta_mean_motion": 13.68615907,
        "meta_eccentricity": 0.03252919,
        "meta_inclination": 74.0527,
        "meta_ra_of_asc_node": 38.7574,
        "meta_arg_of_pericenter": 210.6599,
        "meta_mean_anomaly": 270.5213,
        "meta_ephemeris_type": 0,
        "meta_classification_type": "U",
        "meta_norad_cat_id": 33916,
        "meta_element_set_no": 999,
        "meta_rev_at_epoch": 83906,
        "meta_bstar": 0.00060926802,
        "meta_mean_motion_dot": 7.34e-06,
        "meta_mean_motion_ddot": 0,
        "tle_line1": "1 33916U 93036DV  25347.85422633  .00000734  00000+0  60927-3 0  9997",
        "tle_line2": "2 33916  74.0527  38.7574 0325291 210.6599 270.5213 13.68615907839069"
      },
      "geometry": {
        "type": "Point",
        "coordinates": [
          47.591352498684174,
          32.18136175986249
        ]
      }
    },
    {
      "type": "Feature",
      "properties": {
        "norad_id": 33917,
        "name": "COSMOS 2251 DEB",
        "group": "cosmos-2251-debris",
        "lat": 63.2057683010168,
        "lon": -95.30560931049833,
        "alt_km": 1062.3385857680923,
        "timestamp": "2025-12-14T18:52:55.896349+00:00",
        "meta_object_name": "COSMOS 2251 DEB",
        "meta_object_id": "1993-036DW",
        "meta_epoch": "2025-12-13T19:30:54.080352",
        "meta_mean_motion": 13.69362005,
        "meta_eccentricity": 0.03312915,
        "meta_inclination": 74.1069,
        "meta_ra_of_asc_node": 120.6334,
        "meta_arg_of_pericenter": 221.3588,
        "meta_mean_anomaly": 136.2016,
        "meta_ephemeris_type": 0,
        "meta_classification_type": "U",
        "meta_norad_cat_id": 33917,
        "meta_element_set_no": 999,
        "meta_rev_at_epoch": 83748,
        "meta_bstar": 0.0010174074,
        "meta_mean_motion_dot": 1.277e-05,
        "meta_mean_motion_ddot": 0,
        "tle_line1": "1 33917U 93036DW  25347.81312593  .00001277  00000+0  10174-2 0  9998",
        "tle_line2": "2 33917  74.1069 120.6334 0331291 221.3588 136.2016 13.69362005837483"
      },
      "geometry": {
        "type": "Point",
        "coordinates": [
          -95.30560931049833,
          63.2057683010168
        ]
      }
    },
    {
      "type": "Feature",
      "properties": {
        "norad_id": 33920,
        "name": "COSMOS 2251 DEB",
        "group": "cosmos-2251-debris",
        "lat": 45.39863577841074,
        "lon": 97.69534385310006,
        "alt_km": 720.817768015414,
        "timestamp": "2025-12-14T18:52:55.896359+00:00",
        "meta_object_name": "COSMOS 2251 DEB",
        "meta_object_id": "1993-036DZ",
        "meta_epoch": "2025-12-13T22:31:09.665184",
        "meta_mean_motion": 14.58306354,
        "meta_eccentricity": 0.00380996,
        "meta_inclination": 74.0616,
        "meta_ra_of_asc_node": 296.1513,
        "meta_arg_of_pericenter": 303.2288,
        "meta_mean_anomaly": 56.5227,
        "meta_ephemeris_type": 0,
        "meta_classification_type": "U",
        "meta_norad_cat_id": 33920,
        "meta_element_set_no": 999,
        "meta_rev_at_epoch": 88132,
        "meta_bstar": 0.0021145422,
        "meta_mean_motion_dot": 9.863e-05,
        "meta_mean_motion_ddot": 0,
        "tle_line1": "1 33920U 93036DZ  25347.93830631  .00009863  00000+0  21145-2 0  9992",
        "tle_line2": "2 33920  74.0616 296.1513 0038099 303.2288  56.5227 14.58306354881323"
      },
      "geometry": {
        "type": "Point",
        "coordinates": [
          97.69534385310006,
          45.39863577841074
        ]
      }
    },
    {
      "type": "Feature",
      "properties": {
        "norad_id": 33922,
        "name": "COSMOS 2251 DEB",
        "group": "cosmos-2251-debris",
        "lat": -28.133312425949093,
        "lon": -27.27644079305165,
        "alt_km": 720.9756807535805,
        "timestamp": "2025-12-14T18:52:55.896369+00:00",
        "meta_object_name": "COSMOS 2251 DEB",
        "meta_object_id": "1993-036EB",
        "meta_epoch": "2025-12-13T21:04:41.637216",
        "meta_mean_motion": 14.49512955,
        "meta_eccentricity": 0.00232615,
        "meta_inclination": 74.0468,
        "meta_ra_of_asc_node": 145.6285,
        "meta_arg_of_pericenter": 256.1442,
        "meta_mean_anomaly": 254.4631,
        "meta_ephemeris_type": 0,
        "meta_classification_type": "U",
        "meta_norad_cat_id": 33922,
        "meta_element_set_no": 999,
        "meta_rev_at_epoch": 88594,
        "meta_bstar": 0.00064646832,
        "meta_mean_motion_dot": 2.46e-05,
        "meta_mean_motion_ddot": 0,
        "tle_line1": "1 33922U 93036EB  25347.87825969  .00002460  00000+0  64647-3 0  9996",
        "tle_line2": "2 33922  74.0468 145.6285 0023261 256.1442 254.4631 14.49512955885943"
      },
      "geometry": {
        "type": "Point",
        "coordinates": [
          -27.27644079305165,
          -28.133312425949093
        ]
      }
    }
  ]
}